{
    "links": {
        "self": "http://www.neowsapp.com/rest/v1/neo/3843830?api_key=iIulBulltgU6a56xZRHN4H3l9WmuAYTsLGpBGhQ2"
    },
    "id": "3843830",
    "neo_reference_id": "3843830",
    "name": "(2019 RT2)",
    "designation": "2019 RT2",
    "nasa_jpl_url": "http://ssd.jpl.nasa.gov/sbdb.cgi?sstr=3843830",
    "absolute_magnitude_h": 24.3,
    "estimated_diameter": {
        "kilometers": {
            "estimated_diameter_min": 0.0366906138,
            "estimated_diameter_max": 0.0820427065
        },
        "meters": {
            "estimated_diameter_min": 36.6906137531,
            "estimated_diameter_max": 82.0427064882
        },
        "miles": {
            "estimated_diameter_min": 0.0227984834,
            "estimated_diameter_max": 0.0509789586
        },
        "feet": {
            "estimated_diameter_min": 120.3760332259,
            "estimated_diameter_max": 269.1689931548
        }
    },
    "is_potentially_hazardous_asteroid": false,
    "close_approach_data": [
        {
            "close_approach_date": "2016-09-03",
            "close_approach_date_full": "2016-Sep-03 18:11",
            "epoch_date_close_approach": 1472926260000,
            "relative_velocity": {
                "kilometers_per_second": "14.0724944146",
                "kilometers_per_hour": "50660.9798925672",
                "miles_per_hour": "31478.7627560232"
            },
            "miss_distance": {
                "astronomical": "0.1732237971",
                "lunar": "67.3840570719",
                "kilometers": "25913911.079472177",
                "miles": "16102157.6778109626"
            },
            "orbiting_body": "Earth"
        },
        {
            "close_approach_date": "2019-09-08",
            "close_approach_date_full": "2019-Sep-08 16:03",
            "epoch_date_close_approach": 1567958580000,
            "relative_velocity": {
                "kilometers_per_second": "13.5048633863",
                "kilometers_per_hour": "48617.5081908107",
                "miles_per_hour": "30209.0289088957"
            },
            "miss_distance": {
                "astronomical": "0.0694320517",
                "lunar": "27.0090681113",
                "kilometers": "10386887.044049879",
                "miles": "6454112.3280071702"
            },
            "orbiting_body": "Earth"
        },
        {
            "close_approach_date": "2022-09-12",
            "close_approach_date_full": "2022-Sep-12 11:52",
            "epoch_date_close_approach": 1662983520000,
            "relative_velocity": {
                "kilometers_per_second": "14.0931054406",
                "kilometers_per_hour": "50735.1795863177",
                "miles_per_hour": "31524.8675601761"
            },
            "miss_distance": {
                "astronomical": "0.1561644854",
                "lunar": "60.7479848206",
                "kilometers": "23361874.385486098",
                "miles": "14516395.6089322324"
            },
            "orbiting_body": "Earth"
        }
    ],
    "orbital_data": {
        "orbit_id": "1",
        "orbit_determination_date": "2019-09-09 12:12:04",
        "first_observation_date": "2019-09-07",
        "last_observation_date": "2019-09-09",
        "data_arc_in_days": 2,
        "observations_used": 29,
        "orbit_uncertainty": "8",
        "minimum_orbit_intersection": ".0688673",
        "jupiter_tisserand_invariant": "4.843",
        "epoch_osculation": "2458734.5",
        "eccentricity": ".1830331975369132",
        "semi_major_axis": "1.317356125761783",
        "inclination": "25.48470534969659",
        "ascending_node_longitude": "165.9090999098516",
        "orbital_period": "552.2722474302301",
        "perihelion_distance": "1.076236221768764",
        "perihelion_argument": "181.4268534863955",
        "aphelion_distance": "1.558476029754802",
        "perihelion_time": "2458736.571635002380",
        "mean_anomaly": "358.6495997140414",
        "mean_motion": ".6518524182142245",
        "equinox": "J2000",
        "orbit_class": {
            "orbit_class_type": "AMO",
            "orbit_class_description": "Near-Earth asteroid orbits similar to that of 1221 Amor",
            "orbit_class_range": "1.017 AU < q (perihelion) < 1.3 AU"
        }
    },
    "is_sentry_object": false
}